start=new Date('2022-07-20T00:00:00.000Z').valueOf();
sats=[{"PERIAPSIS":"546.242","BSTAR":"0.00037662000000","RA_OF_ASC_NODE":"287.5360","EPOCH":"2022-07-19T17:34:57.942048","MEAN_ELEMENT_THEORY":"SGP4","RCS_SIZE":"LARGE","MEAN_MOTION_DOT":"0.00005334","TIME_SYSTEM":"UTC","EPHEMERIS_TYPE":"0","OBJECT_TYPE":"PAYLOAD","DECAY_DATE":null,"REF_FRAME":"TEME","PERIOD":"95.592","SEMIMAJOR_AXIS":"6925.319","NORAD_CAT_ID":"48284","COUNTRY_CODE":"US","ECCENTRICITY":"0.00013610","FILE":"3517796","LAUNCH_DATE":"2021-04-29","MEAN_MOTION_DDOT":"0.0000000000000","GP_ID":"208470430","MEAN_MOTION":"15.06409562","ELEMENT_SET_NO":"999","OBJECT_NAME":"STARLINK-2564","MEAN_ANOMALY":"283.8634","CLASSIFICATION_TYPE":"U","CENTER_NAME":"EARTH","TLE_LINE2":"2 48284  53.0546 287.5360 0001361  76.2507 283.8634 15.06409562 68006","ARG_OF_PERICENTER":"76.2507","OBJECT_ID":"2021-036J","TLE_LINE1":"1 48284U 21036J   22200.73261507  .00005334  00000-0  37662-3 0  9997","SITE":"AFETR","INCLINATION":"53.0546","APOAPSIS":"548.127","REV_AT_EPOCH":"6800"},{"RA_OF_ASC_NODE":"287.5578","BSTAR":"0.00143890000000","EPOCH":"2022-07-19T17:28:18.601248","MEAN_ELEMENT_THEORY":"SGP4","PERIAPSIS":"546.130","RCS_SIZE":"LARGE","MEAN_MOTION_DOT":"0.00021229","OBJECT_TYPE":"PAYLOAD","DECAY_DATE":null,"REF_FRAME":"TEME","TIME_SYSTEM":"UTC","EPHEMERIS_TYPE":"0","PERIOD":"95.591","SEMIMAJOR_AXIS":"6925.278","NORAD_CAT_ID":"48285","COUNTRY_CODE":"US","ECCENTRICITY":"0.00014620","MEAN_MOTION_DDOT":"0.0000000000000","FILE":"3517796","LAUNCH_DATE":"2021-04-29","MEAN_ANOMALY":"282.4318","CLASSIFICATION_TYPE":"U","CENTER_NAME":"EARTH","TLE_LINE2":"2 48285  53.0536 287.5578 0001462  77.6835 282.4318 15.06423049 68008","MEAN_MOTION":"15.06423049","GP_ID":"208470680","ELEMENT_SET_NO":"999","OBJECT_NAME":"STARLINK-2548","ARG_OF_PERICENTER":"77.6835","OBJECT_ID":"2021-036K","TLE_LINE1":"1 48285U 21036K   22200.72799307  .00021229  00000-0  14389-2 0  9992","SITE":"AFETR","INCLINATION":"53.0536","APOAPSIS":"548.155","REV_AT_EPOCH":"6800"},{"EPOCH":"2022-07-19T17:24:22.455360","MEAN_ELEMENT_THEORY":"SGP4","BSTAR":"0.00129870000000","RA_OF_ASC_NODE":"287.5874","PERIAPSIS":"546.083","RCS_SIZE":"LARGE","MEAN_MOTION_DOT":"0.00019122","DECAY_DATE":null,"REF_FRAME":"TEME","OBJECT_TYPE":"PAYLOAD","TIME_SYSTEM":"UTC","EPHEMERIS_TYPE":"0","NORAD_CAT_ID":"48286","COUNTRY_CODE":"US","PERIOD":"95.591","SEMIMAJOR_AXIS":"6925.312","ECCENTRICITY":"0.00015790","MEAN_MOTION_DDOT":"0.0000000000000","LAUNCH_DATE":"2021-04-29","FILE":"3517796","CLASSIFICATION_TYPE":"U","CENTER_NAME":"EARTH","MEAN_ANOMALY":"283.7827","TLE_LINE2":"2 48286  53.0537 287.5874 0001579  76.3338 283.7827 15.06412017 68004","OBJECT_NAME":"STARLINK-2547","ELEMENT_SET_NO":"999","GP_ID":"208470931","MEAN_MOTION":"15.06412017","APOAPSIS":"548.270","INCLINATION":"53.0537","REV_AT_EPOCH":"6800","ARG_OF_PERICENTER":"76.3338","OBJECT_ID":"2021-036L","TLE_LINE1":"1 48286U 21036L   22200.72525990  .00019122  00000-0  12987-2 0  9999","SITE":"AFETR"},{"BSTAR":"0.00030970000000","RA_OF_ASC_NODE":"287.5947","MEAN_ELEMENT_THEORY":"SGP4","EPOCH":"2022-07-19T17:19:03.356832","PERIAPSIS":"546.152","MEAN_MOTION_DOT":"0.00004335","RCS_SIZE":"LARGE","OBJECT_TYPE":"PAYLOAD","REF_FRAME":"TEME","DECAY_DATE":null,"EPHEMERIS_TYPE":"0","TIME_SYSTEM":"UTC","SEMIMAJOR_AXIS":"6925.337","PERIOD":"95.592","COUNTRY_CODE":"US","NORAD_CAT_ID":"48287","ECCENTRICITY":"0.00015160","MEAN_MOTION_DDOT":"0.0000000000000","FILE":"3517796","LAUNCH_DATE":"2021-04-29","TLE_LINE2":"2 48287  53.0553 287.5947 0001516  73.2536 286.8619 15.06403831 68008","MEAN_ANOMALY":"286.8619","CLASSIFICATION_TYPE":"U","CENTER_NAME":"EARTH","ELEMENT_SET_NO":"999","GP_ID":"208471182","MEAN_MOTION":"15.06403831","OBJECT_NAME":"STARLINK-2566","TLE_LINE1":"1 48287U 21036M   22200.72156663  .00004335  00000-0  30970-3 0  9990","OBJECT_ID":"2021-036M","SITE":"AFETR","ARG_OF_PERICENTER":"73.2536","REV_AT_EPOCH":"6800","INCLINATION":"53.0553","APOAPSIS":"548.252"},{"SITE":"AFETR","TLE_LINE1":"1 48288U 21036N   22200.71693759  .00020848  00000-0  14136-2 0  9994","OBJECT_ID":"2021-036N","ARG_OF_PERICENTER":"70.6699","REV_AT_EPOCH":"6800","APOAPSIS":"548.234","INCLINATION":"53.0535","TLE_LINE2":"2 48288  53.0535 287.6036 0001562  70.6699 289.4459 15.06420086 68003","CENTER_NAME":"EARTH","MEAN_ANOMALY":"289.4459","CLASSIFICATION_TYPE":"U","GP_ID":"208469931","ELEMENT_SET_NO":"999","MEAN_MOTION":"15.06420086","OBJECT_NAME":"STARLINK-2562","MEAN_MOTION_DDOT":"0.0000000000000","FILE":"3517796","LAUNCH_DATE":"2021-04-29","ECCENTRICITY":"0.00015620","SEMIMAJOR_AXIS":"6925.287","PERIOD":"95.591","COUNTRY_CODE":"US","NORAD_CAT_ID":"48288","OBJECT_TYPE":"PAYLOAD","REF_FRAME":"TEME","DECAY_DATE":null,"EPHEMERIS_TYPE":"0","TIME_SYSTEM":"UTC","MEAN_MOTION_DOT":"0.00020848","RCS_SIZE":"LARGE","BSTAR":"0.00141360000000","RA_OF_ASC_NODE":"287.6036","MEAN_ELEMENT_THEORY":"SGP4","EPOCH":"2022-07-19T17:12:23.407776","PERIAPSIS":"546.070"},{"NORAD_CAT_ID":"48289","COUNTRY_CODE":"US","PERIOD":"95.591","SEMIMAJOR_AXIS":"6925.309","DECAY_DATE":null,"REF_FRAME":"TEME","OBJECT_TYPE":"PAYLOAD","TIME_SYSTEM":"UTC","EPHEMERIS_TYPE":"0","MEAN_MOTION_DOT":"0.00007886","RCS_SIZE":"LARGE","EPOCH":"2022-07-19T17:08:26.221632","MEAN_ELEMENT_THEORY":"SGP4","BSTAR":"0.00054751000000","RA_OF_ASC_NODE":"287.6197","PERIAPSIS":"546.323","INCLINATION":"53.0540","APOAPSIS":"548.026","REV_AT_EPOCH":"6800","ARG_OF_PERICENTER":"60.9721","TLE_LINE1":"1 48289U 21036P   22200.71419238  .00007886  00000-0  54751-3 0  9998","OBJECT_ID":"2021-036P","SITE":"AFETR","CLASSIFICATION_TYPE":"U","MEAN_ANOMALY":"299.1391","CENTER_NAME":"EARTH","TLE_LINE2":"2 48289  53.0540 287.6197 0001229  60.9721 299.1391 15.06412783 68004","OBJECT_NAME":"STARLINK-2545","MEAN_MOTION":"15.06412783","GP_ID":"208470180","ELEMENT_SET_NO":"999","MEAN_MOTION_DDOT":"0.0000000000000","LAUNCH_DATE":"2021-04-29","FILE":"3517796","ECCENTRICITY":"0.00012290"},{"ECCENTRICITY":"0.00014950","MEAN_MOTION_DDOT":"0.0000000000000","LAUNCH_DATE":"2021-04-29","FILE":"3517796","MEAN_ANOMALY":"276.8190","CENTER_NAME":"EARTH","CLASSIFICATION_TYPE":"U","TLE_LINE2":"2 48290  53.0525 287.6423 0001495  83.2969 276.8190 15.06415476 68009","OBJECT_NAME":"STARLINK-2540","MEAN_MOTION":"15.06415476","GP_ID":"208471432","ELEMENT_SET_NO":"999","APOAPSIS":"548.201","INCLINATION":"53.0525","REV_AT_EPOCH":"6800","ARG_OF_PERICENTER":"83.2969","OBJECT_ID":"2021-036Q","TLE_LINE1":"1 48290U 21036Q   22200.71051526  .00015112  00000-0  10308-2 0  9992","SITE":"AFETR","EPOCH":"2022-07-19T17:03:08.518464","MEAN_ELEMENT_THEORY":"SGP4","BSTAR":"0.00103080000000","RA_OF_ASC_NODE":"287.6423","PERIAPSIS":"546.131","RCS_SIZE":"LARGE","MEAN_MOTION_DOT":"0.00015112","DECAY_DATE":null,"REF_FRAME":"TEME","OBJECT_TYPE":"PAYLOAD","TIME_SYSTEM":"UTC","EPHEMERIS_TYPE":"0","NORAD_CAT_ID":"48290","COUNTRY_CODE":"US","PERIOD":"95.591","SEMIMAJOR_AXIS":"6925.301"},{"TIME_SYSTEM":"UTC","EPHEMERIS_TYPE":"0","DECAY_DATE":null,"REF_FRAME":"TEME","OBJECT_TYPE":"PAYLOAD","NORAD_CAT_ID":"48291","COUNTRY_CODE":"US","PERIOD":"95.591","SEMIMAJOR_AXIS":"6925.312","PERIAPSIS":"546.157","EPOCH":"2022-07-19T16:57:50.148288","MEAN_ELEMENT_THEORY":"SGP4","BSTAR":"0.00105040000000","RA_OF_ASC_NODE":"287.6559","RCS_SIZE":"LARGE","MEAN_MOTION_DOT":"0.00015404","OBJECT_NAME":"STARLINK-2555","ELEMENT_SET_NO":"999","GP_ID":"208471683","MEAN_MOTION":"15.06411839","CENTER_NAME":"EARTH","MEAN_ANOMALY":"295.2657","CLASSIFICATION_TYPE":"U","TLE_LINE2":"2 48291  53.0525 287.6559 0001473  64.8484 295.2657 15.06411839 68005","APOAPSIS":"548.197","INCLINATION":"53.0525","REV_AT_EPOCH":"6800","ARG_OF_PERICENTER":"64.8484","TLE_LINE1":"1 48291U 21036R   22200.70683042  .00015404  00000-0  10504-2 0  9998","SITE":"AFETR","OBJECT_ID":"2021-036R","ECCENTRICITY":"0.00014730","LAUNCH_DATE":"2021-04-29","FILE":"3517796","MEAN_MOTION_DDOT":"0.0000000000000"},{"TIME_SYSTEM":"UTC","EPHEMERIS_TYPE":"0","DECAY_DATE":null,"REF_FRAME":"TEME","OBJECT_TYPE":"PAYLOAD","NORAD_CAT_ID":"48292","COUNTRY_CODE":"US","PERIOD":"95.592","SEMIMAJOR_AXIS":"6925.333","PERIAPSIS":"546.193","EPOCH":"2022-07-19T17:13:46.940160","MEAN_ELEMENT_THEORY":"SGP4","BSTAR":"0.00028575000000","RA_OF_ASC_NODE":"287.7789","RCS_SIZE":"LARGE","MEAN_MOTION_DOT":"0.00003978","OBJECT_NAME":"STARLINK-2542","MEAN_MOTION":"15.06405201","GP_ID":"208470431","ELEMENT_SET_NO":"999","CLASSIFICATION_TYPE":"U","CENTER_NAME":"EARTH","MEAN_ANOMALY":"293.6116","TLE_LINE2":"2 48292  53.0554 287.7789 0001450  66.5025 293.6116 15.06405201 68007","APOAPSIS":"548.202","INCLINATION":"53.0554","REV_AT_EPOCH":"6800","ARG_OF_PERICENTER":"66.5025","TLE_LINE1":"1 48292U 21036S   22200.71790440  .00003978  00000-0  28575-3 0  9992","OBJECT_ID":"2021-036S","SITE":"AFETR","ECCENTRICITY":"0.00014500","LAUNCH_DATE":"2021-04-29","FILE":"3517796","MEAN_MOTION_DDOT":"0.0000000000000"},{"ARG_OF_PERICENTER":"76.5450","OBJECT_ID":"2021-036T","TLE_LINE1":"1 48293U 21036T   22200.63310747  .00001649  00000-0  12959-3 0  9994","SITE":"AFETR","APOAPSIS":"548.260","INCLINATION":"53.0545","REV_AT_EPOCH":"6799","GP_ID":"208470681","MEAN_MOTION":"15.06397581","ELEMENT_SET_NO":"999","OBJECT_NAME":"STARLINK-2550","CENTER_NAME":"EARTH","CLASSIFICATION_TYPE":"U","MEAN_ANOMALY":"283.5706","TLE_LINE2":"2 48293  53.0545 287.9976 0001500  76.5450 283.5706 15.06397581 67998","FILE":"3517796","LAUNCH_DATE":"2021-04-29","MEAN_MOTION_DDOT":"0.0000000000000","ECCENTRICITY":"0.00015000","PERIOD":"95.592","SEMIMAJOR_AXIS":"6925.356","NORAD_CAT_ID":"48293","COUNTRY_CODE":"US","TIME_SYSTEM":"UTC","EPHEMERIS_TYPE":"0","OBJECT_TYPE":"PAYLOAD","DECAY_DATE":null,"REF_FRAME":"TEME","MEAN_MOTION_DOT":"0.00001649","RCS_SIZE":"LARGE","PERIAPSIS":"546.182","BSTAR":"0.00012959000000","RA_OF_ASC_NODE":"287.9976","EPOCH":"2022-07-19T15:11:40.485408","MEAN_ELEMENT_THEORY":"SGP4"}];
